[
    {
        "Altitude(m)": 571727.8832447426,
        "Argument of Periapsis(deg)": 0.019868973332140504,
        "Eccentricity": 0.0,
        "Inclination(deg)": 53.0,
        "Latitude(deg)": -52.84546522375531,
        "Longitude(deg)": 159.10536843953244,
        "Mean Anomaly(deg)": 264.82027860273274,
        "RAAN(deg)": -0.029569894415949535,
        "Satellite Name": "Starlink Shell 1 14",
        "Satellite Number": 14,
        "Semi-Major Axis(m)": 6931778.249405717,
        "Time(s)": 570
    },
    {
        "Altitude(m)": 571754.601557074,
        "Argument of Periapsis(deg)": 0.02021755181165174,
        "Eccentricity": 0.0,
        "Inclination(deg)": 53.0,
        "Latitude(deg)": -52.9149218399623,
        "Longitude(deg)": 160.08996192456934,
        "Mean Anomaly(deg)": 265.4471098062895,
        "RAAN(deg)": -0.030088664493422325,
        "Satellite Name": "Starlink Shell 1 14",
        "Satellite Number": 14,
        "Semi-Major Axis(m)": 6931778.249405717,
        "Time(s)": 580
    },
    {
        "Altitude(m)": 571777.8749074595,
        "Argument of Periapsis(deg)": 0.020566130291162974,
        "Eccentricity": 0.0,
        "Inclination(deg)": 53.0,
        "Latitude(deg)": -52.97549703321241,
        "Longitude(deg)": 161.07762732387093,
        "Mean Anomaly(deg)": 266.07394100984624,
        "RAAN(deg)": -0.03060743457089513,
        "Satellite Name": "Starlink Shell 1 14",
        "Satellite Number": 14,
        "Semi-Major Axis(m)": 6931778.249405717,
        "Time(s)": 590
    },
    {
        "Altitude(m)": 571797.6939859156,
        "Argument of Periapsis(deg)": 0.020914708770674213,
        "Eccentricity": 0.0,
        "Inclination(deg)": 53.0,
        "Latitude(deg)": -53.02714682341265,
        "Longitude(deg)": 162.0679571038453,
        "Mean Anomaly(deg)": 266.7007722134029,
        "RAAN(deg)": -0.031126204648367926,
        "Satellite Name": "Starlink Shell 1 14",
        "Satellite Number": 14,
        "Semi-Major Axis(m)": 6931778.249405717,
        "Time(s)": 600
    },
    {
        "Altitude(m)": 571814.0508605193,
        "Argument of Periapsis(deg)": 0.021263287250185448,
        "Eccentricity": 0.0,
        "Inclination(deg)": 53.0,
        "Latitude(deg)": -53.069833484225995,
        "Longitude(deg)": 163.060535978573,
        "Mean Anomaly(deg)": 267.3276034169596,
        "RAAN(deg)": -0.03164497472584072,
        "Satellite Name": "Starlink Shell 1 14",
        "Satellite Number": 14,
        "Semi-Major Axis(m)": 6931778.249405717,
        "Time(s)": 610
    },
    {
        "Altitude(m)": 571826.9389808456,
        "Argument of Periapsis(deg)": 0.021611865729696686,
        "Eccentricity": 0.0,
        "Inclination(deg)": 53.0,
        "Latitude(deg)": -53.10352567774781,
        "Longitude(deg)": 164.05494256723097,
        "Mean Anomaly(deg)": 267.95443462051634,
        "RAAN(deg)": -0.03216374480331353,
        "Satellite Name": "Starlink Shell 1 14",
        "Satellite Number": 14,
        "Semi-Major Axis(m)": 6931778.249405717,
        "Time(s)": 620
    },
    {
        "Altitude(m)": 571836.3531807943,
        "Argument of Periapsis(deg)": 0.02196044420920792,
        "Eccentricity": 0.0,
        "Inclination(deg)": 53.0,
        "Latitude(deg)": -53.12819856733988,
        "Longitude(deg)": 165.05074941770863,
        "Mean Anomaly(deg)": 268.5812658240731,
        "RAAN(deg)": -0.03268251488078632,
        "Satellite Name": "Starlink Shell 1 14",
        "Satellite Number": 14,
        "Semi-Major Axis(m)": 6931778.249405717,
        "Time(s)": 630
    },
    {
        "Altitude(m)": 571842.2896808438,
        "Argument of Periapsis(deg)": 0.02230902268871916,
        "Eccentricity": 0.0,
        "Inclination(deg)": 53.0,
        "Latitude(deg)": -53.14383390768411,
        "Longitude(deg)": 166.04752559065452,
        "Mean Anomaly(deg)": 269.2080970276298,
        "RAAN(deg)": -0.03320128495825912,
        "Satellite Name": "Starlink Shell 1 14",
        "Satellite Number": 14,
        "Semi-Major Axis(m)": 6931778.249405717,
        "Time(s)": 640
    },
    {
        "Altitude(m)": 571844.7460896679,
        "Argument of Periapsis(deg)": 0.022657601168230398,
        "Eccentricity": 0.0,
        "Inclination(deg)": 53.0,
        "Latitude(deg)": -53.15042011128552,
        "Longitude(deg)": 167.04483675233962,
        "Mean Anomaly(deg)": 269.83492823118644,
        "RAAN(deg)": -0.03372005503573192,
        "Satellite Name": "Starlink Shell 1 14",
        "Satellite Number": 14,
        "Semi-Major Axis(m)": 6931778.249405717,
        "Time(s)": 650
    },
    {
        "Altitude(m)": 571843.7214051955,
        "Argument of Periapsis(deg)": 0.023006179647741636,
        "Eccentricity": 0.0,
        "Inclination(deg)": 53.0,
        "Latitude(deg)": -53.14795229086501,
        "Longitude(deg)": 168.04224696964425,
        "Mean Anomaly(deg)": 270.4617594347432,
        "RAAN(deg)": -0.03423882511320472,
        "Satellite Name": "Starlink Shell 1 14",
        "Satellite Number": 14,
        "Semi-Major Axis(m)": 6931778.249405717,
        "Time(s)": 660
    },
    {
        "Altitude(m)": 571839.2160150165,
        "Argument of Periapsis(deg)": 0.023354758127252868,
        "Eccentricity": 0.0,
        "Inclination(deg)": 53.0,
        "Latitude(deg)": -53.136432277275574,
        "Longitude(deg)": 169.03932051679624,
        "Mean Anomaly(deg)": 271.08859063829993,
        "RAAN(deg)": -0.03475759519067752,
        "Satellite Name": "Starlink Shell 1 14",
        "Satellite Number": 14,
        "Semi-Major Axis(m)": 6931778.249405717,
        "Time(s)": 670
    },
    {
        "Altitude(m)": 571831.2316962434,
        "Argument of Periapsis(deg)": 0.023703336606764106,
        "Eccentricity": 0.0,
        "Inclination(deg)": 53.0,
        "Latitude(deg)": -53.115868612785974,
        "Longitude(deg)": 170.0356221714202,
        "Mean Anomaly(deg)": 271.7154218418567,
        "RAAN(deg)": -0.03527636526815032,
        "Satellite Name": "Starlink Shell 1 14",
        "Satellite Number": 14,
        "Semi-Major Axis(m)": 6931778.249405717,
        "Time(s)": 680
    },
    {
        "Altitude(m)": 571819.7716147363,
        "Argument of Periapsis(deg)": 0.024051915086275345,
        "Eccentricity": 0.0,
        "Inclination(deg)": 53.0,
        "Latitude(deg)": -53.08627651979433,
        "Longitude(deg)": 171.03071901604997,
        "Mean Anomaly(deg)": 272.3422530454134,
        "RAAN(deg)": -0.03579513534562312,
        "Satellite Name": "Starlink Shell 1 14",
        "Satellite Number": 14,
        "Semi-Major Axis(m)": 6931778.249405717,
        "Time(s)": 690
    },
    {
        "Altitude(m)": 571804.840323738,
        "Argument of Periapsis(deg)": 0.024400493565786583,
        "Eccentricity": 0.0,
        "Inclination(deg)": 53.0,
        "Latitude(deg)": -53.047677845237565,
        "Longitude(deg)": 172.0241822227372,
        "Mean Anomaly(deg)": 272.9690842489701,
        "RAAN(deg)": -0.03631390542309591,
        "Satellite Name": "Starlink Shell 1 14",
        "Satellite Number": 14,
        "Semi-Major Axis(m)": 6931778.249405717,
        "Time(s)": 700
    },
    {
        "Altitude(m)": 571786.4437619094,
        "Argument of Periapsis(deg)": 0.024749072045297815,
        "Eccentricity": 0.0,
        "Inclination(deg)": 53.0,
        "Latitude(deg)": -53.00010098116947,
        "Longitude(deg)": 173.01558729861893,
        "Mean Anomaly(deg)": 273.5959154525268,
        "RAAN(deg)": -0.036832675500568714,
        "Satellite Name": "Starlink Shell 1 14",
        "Satellite Number": 14,
        "Semi-Major Axis(m)": 6931778.249405717,
        "Time(s)": 710
    },
    {
        "Altitude(m)": 571764.58925076,
        "Argument of Periapsis(deg)": 0.025097650524809053,
        "Eccentricity": 0.0,
        "Inclination(deg)": 53.0,
        "Latitude(deg)": -52.94358076218618,
        "Longitude(deg)": 174.0045158092869,
        "Mean Anomaly(deg)": 274.22274665608353,
        "RAAN(deg)": -0.03735144557804152,
        "Satellite Name": "Starlink Shell 1 14",
        "Satellite Number": 14,
        "Semi-Major Axis(m)": 6931778.249405717,
        "Time(s)": 720
    },
    {
        "Altitude(m)": 571739.2854914988,
        "Argument of Periapsis(deg)": 0.02544622900432029,
        "Eccentricity": 0.0,
        "Inclination(deg)": 53.0,
        "Latitude(deg)": -52.878158340560866,
        "Longitude(deg)": 174.99055705864467,
        "Mean Anomaly(deg)": 274.8495778596402,
        "RAAN(deg)": -0.037870215655514315,
        "Satellite Name": "Starlink Shell 1 14",
        "Satellite Number": 14,
        "Semi-Major Axis(m)": 6931778.249405717,
        "Time(s)": 730
    },
    {
        "Altitude(m)": 571710.5425612603,
        "Argument of Periapsis(deg)": 0.02579480748383153,
        "Eccentricity": 0.0,
        "Inclination(deg)": 53.0,
        "Latitude(deg)": -52.80388104012323,
        "Longitude(deg)": 175.97330820452788,
        "Mean Anomaly(deg)": 275.4764090631969,
        "RAAN(deg)": -0.038388985732987116,
        "Satellite Name": "Starlink Shell 1 14",
        "Satellite Number": 14,
        "Semi-Major Axis(m)": 6931778.249405717,
        "Time(s)": 740
    },
    {
        "Altitude(m)": 571678.3719087561,
        "Argument of Periapsis(deg)": 0.026143385963342765,
        "Eccentricity": 0.0,
        "Inclination(deg)": 53.0,
        "Latitude(deg)": -52.720802190090616,
        "Longitude(deg)": 176.95237582864533,
        "Mean Anomaly(deg)": 276.10324026675363,
        "RAAN(deg)": -0.03890775581045992,
        "Satellite Name": "Starlink Shell 1 14",
        "Satellite Number": 14,
        "Semi-Major Axis(m)": 6931778.249405717,
        "Time(s)": 750
    }
]